<?xml version="1.0" encoding="UTF-8"?>
<ndm xmlns:xsi="http://www.w3.org/2001/XMLSchema-instance" xsi:noNamespaceSchemaLocation="https://sanaregistry.org/r/ndmxml_unqualified/ndmxml-2.0.0-master-2.0.xsd">
<omm id="CCSDS_OMM_VERS" version="2.0">
<header><CREATION_DATE/><ORIGINATOR/></header><body><segment><metadata><OBJECT_NAME>ONEWEB-0613</OBJECT_NAME><OBJECT_ID>2023-043AB</OBJECT_ID><CENTER_NAME>EARTH</CENTER_NAME><REF_FRAME>TEME</REF_FRAME><TIME_SYSTEM>UTC</TIME_SYSTEM><MEAN_ELEMENT_THEORY>SGP4</MEAN_ELEMENT_THEORY></metadata><data><meanElements><EPOCH>2023-10-19T20:25:39.472320</EPOCH><MEAN_MOTION>13.15547889</MEAN_MOTION><ECCENTRICITY>.0001771</ECCENTRICITY><INCLINATION>87.8953</INCLINATION><RA_OF_ASC_NODE>92.5883</RA_OF_ASC_NODE><ARG_OF_PERICENTER>77.6782</ARG_OF_PERICENTER><MEAN_ANOMALY>282.4547</MEAN_ANOMALY></meanElements><tleParameters><EPHEMERIS_TYPE>0</EPHEMERIS_TYPE><CLASSIFICATION_TYPE>U</CLASSIFICATION_TYPE><NORAD_CAT_ID>56071</NORAD_CAT_ID><ELEMENT_SET_NO>999</ELEMENT_SET_NO><REV_AT_EPOCH>2963</REV_AT_EPOCH><BSTAR>-.27179E-3</BSTAR><MEAN_MOTION_DOT>-.89E-6</MEAN_MOTION_DOT><MEAN_MOTION_DDOT>0</MEAN_MOTION_DDOT></tleParameters></data></segment></body></omm>
<omm id="CCSDS_OMM_VERS" version="2.0">
<header><CREATION_DATE/><ORIGINATOR/></header><body><segment><metadata><OBJECT_NAME>ONEWEB-0630</OBJECT_NAME><OBJECT_ID>2023-043AC</OBJECT_ID><CENTER_NAME>EARTH</CENTER_NAME><REF_FRAME>TEME</REF_FRAME><TIME_SYSTEM>UTC</TIME_SYSTEM><MEAN_ELEMENT_THEORY>SGP4</MEAN_ELEMENT_THEORY></metadata><data><meanElements><EPOCH>2023-10-19T20:19:34.195584</EPOCH><MEAN_MOTION>13.15547843</MEAN_MOTION><ECCENTRICITY>.0001513</ECCENTRICITY><INCLINATION>87.8950</INCLINATION><RA_OF_ASC_NODE>92.5888</RA_OF_ASC_NODE><ARG_OF_PERICENTER>73.5772</ARG_OF_PERICENTER><MEAN_ANOMALY>286.5525</MEAN_ANOMALY></meanElements><tleParameters><EPHEMERIS_TYPE>0</EPHEMERIS_TYPE><CLASSIFICATION_TYPE>U</CLASSIFICATION_TYPE><NORAD_CAT_ID>56072</NORAD_CAT_ID><ELEMENT_SET_NO>999</ELEMENT_SET_NO><REV_AT_EPOCH>2962</REV_AT_EPOCH><BSTAR>-.35024E-3</BSTAR><MEAN_MOTION_DOT>-.119E-5</MEAN_MOTION_DOT><MEAN_MOTION_DDOT>0</MEAN_MOTION_DDOT></tleParameters></data></segment></body></omm>
<omm id="CCSDS_OMM_VERS" version="2.0">
<header><CREATION_DATE/><ORIGINATOR/></header><body><segment><metadata><OBJECT_NAME>ONEWEB-0632</OBJECT_NAME><OBJECT_ID>2023-043AD</OBJECT_ID><CENTER_NAME>EARTH</CENTER_NAME><REF_FRAME>TEME</REF_FRAME><TIME_SYSTEM>UTC</TIME_SYSTEM><MEAN_ELEMENT_THEORY>SGP4</MEAN_ELEMENT_THEORY></metadata><data><meanElements><EPOCH>2023-10-19T20:13:29.329248</EPOCH><MEAN_MOTION>13.15548568</MEAN_MOTION><ECCENTRICITY>.0002278</ECCENTRICITY><INCLINATION>87.8956</INCLINATION><RA_OF_ASC_NODE>92.6053</RA_OF_ASC_NODE><ARG_OF_PERICENTER>84.5922</ARG_OF_PERICENTER><MEAN_ANOMALY>275.5469</MEAN_ANOMALY></meanElements><tleParameters><EPHEMERIS_TYPE>0</EPHEMERIS_TYPE><CLASSIFICATION_TYPE>U</CLASSIFICATION_TYPE><NORAD_CAT_ID>56073</NORAD_CAT_ID><ELEMENT_SET_NO>999</ELEMENT_SET_NO><REV_AT_EPOCH>2962</REV_AT_EPOCH><BSTAR>-.20501E-3</BSTAR><MEAN_MOTION_DOT>-.64E-6</MEAN_MOTION_DOT><MEAN_MOTION_DDOT>0</MEAN_MOTION_DDOT></tleParameters></data></segment></body></omm>
<omm id="CCSDS_OMM_VERS" version="2.0">
<header><CREATION_DATE/><ORIGINATOR/></header><body><segment><metadata><OBJECT_NAME>ONEWEB-0633</OBJECT_NAME><OBJECT_ID>2023-043AE</OBJECT_ID><CENTER_NAME>EARTH</CENTER_NAME><REF_FRAME>TEME</REF_FRAME><TIME_SYSTEM>UTC</TIME_SYSTEM><MEAN_ELEMENT_THEORY>SGP4</MEAN_ELEMENT_THEORY></metadata><data><meanElements><EPOCH>2023-10-19T16:25:25.528800</EPOCH><MEAN_MOTION>13.16016526</MEAN_MOTION><ECCENTRICITY>.0001495</ECCENTRICITY><INCLINATION>87.8946</INCLINATION><RA_OF_ASC_NODE>92.6303</RA_OF_ASC_NODE><ARG_OF_PERICENTER>63.5870</ARG_OF_PERICENTER><MEAN_ANOMALY>296.5414</MEAN_ANOMALY></meanElements><tleParameters><EPHEMERIS_TYPE>0</EPHEMERIS_TYPE><CLASSIFICATION_TYPE>U</CLASSIFICATION_TYPE><NORAD_CAT_ID>56074</NORAD_CAT_ID><ELEMENT_SET_NO>999</ELEMENT_SET_NO><REV_AT_EPOCH>2958</REV_AT_EPOCH><BSTAR>.6123E-4</BSTAR><MEAN_MOTION_DOT>.36E-6</MEAN_MOTION_DOT><MEAN_MOTION_DDOT>0</MEAN_MOTION_DDOT></tleParameters></data></segment></body></omm>
<omm id="CCSDS_OMM_VERS" version="2.0">
<header><CREATION_DATE/><ORIGINATOR/></header><body><segment><metadata><OBJECT_NAME>ONEWEB-0634</OBJECT_NAME><OBJECT_ID>2023-043AF</OBJECT_ID><CENTER_NAME>EARTH</CENTER_NAME><REF_FRAME>TEME</REF_FRAME><TIME_SYSTEM>UTC</TIME_SYSTEM><MEAN_ELEMENT_THEORY>SGP4</MEAN_ELEMENT_THEORY></metadata><data><meanElements><EPOCH>2023-10-19T12:23:25.605312</EPOCH><MEAN_MOTION>13.15540888</MEAN_MOTION><ECCENTRICITY>.0001167</ECCENTRICITY><INCLINATION>87.8945</INCLINATION><RA_OF_ASC_NODE>92.6593</RA_OF_ASC_NODE><ARG_OF_PERICENTER>97.4822</ARG_OF_PERICENTER><MEAN_ANOMALY>262.6441</MEAN_ANOMALY></meanElements><tleParameters><EPHEMERIS_TYPE>0</EPHEMERIS_TYPE><CLASSIFICATION_TYPE>U</CLASSIFICATION_TYPE><NORAD_CAT_ID>56075</NORAD_CAT_ID><ELEMENT_SET_NO>999</ELEMENT_SET_NO><REV_AT_EPOCH>2864</REV_AT_EPOCH><BSTAR>.57971E-3</BSTAR><MEAN_MOTION_DOT>.231E-5</MEAN_MOTION_DOT><MEAN_MOTION_DDOT>0</MEAN_MOTION_DDOT></tleParameters></data></segment></body></omm>
<omm id="CCSDS_OMM_VERS" version="2.0">
<header><CREATION_DATE/><ORIGINATOR/></header><body><segment><metadata><OBJECT_NAME>ONEWEB-0635</OBJECT_NAME><OBJECT_ID>2023-043AG</OBJECT_ID><CENTER_NAME>EARTH</CENTER_NAME><REF_FRAME>TEME</REF_FRAME><TIME_SYSTEM>UTC</TIME_SYSTEM><MEAN_ELEMENT_THEORY>SGP4</MEAN_ELEMENT_THEORY></metadata><data><meanElements><EPOCH>2023-10-19T17:44:12.506496</EPOCH><MEAN_MOTION>13.15085469</MEAN_MOTION><ECCENTRICITY>.0002235</ECCENTRICITY><INCLINATION>87.8927</INCLINATION><RA_OF_ASC_NODE>92.6878</RA_OF_ASC_NODE><ARG_OF_PERICENTER>87.2007</ARG_OF_PERICENTER><MEAN_ANOMALY>272.9379</MEAN_ANOMALY></meanElements><tleParameters><EPHEMERIS_TYPE>0</EPHEMERIS_TYPE><CLASSIFICATION_TYPE>U</CLASSIFICATION_TYPE><NORAD_CAT_ID>56076</NORAD_CAT_ID><ELEMENT_SET_NO>999</ELEMENT_SET_NO><REV_AT_EPOCH>2961</REV_AT_EPOCH><BSTAR>.41893E-3</BSTAR><MEAN_MOTION_DOT>.169E-5</MEAN_MOTION_DOT><MEAN_MOTION_DDOT>0</MEAN_MOTION_DDOT></tleParameters></data></segment></body></omm>
<omm id="CCSDS_OMM_VERS" version="2.0">
<header><CREATION_DATE/><ORIGINATOR/></header><body><segment><metadata><OBJECT_NAME>ONEWEB-0636</OBJECT_NAME><OBJECT_ID>2023-043AH</OBJECT_ID><CENTER_NAME>EARTH</CENTER_NAME><REF_FRAME>TEME</REF_FRAME><TIME_SYSTEM>UTC</TIME_SYSTEM><MEAN_ELEMENT_THEORY>SGP4</MEAN_ELEMENT_THEORY></metadata><data><meanElements><EPOCH>2023-10-19T17:32:08.546208</EPOCH><MEAN_MOTION>13.15069029</MEAN_MOTION><ECCENTRICITY>.0002198</ECCENTRICITY><INCLINATION>87.8935</INCLINATION><RA_OF_ASC_NODE>92.6544</RA_OF_ASC_NODE><ARG_OF_PERICENTER>83.3772</ARG_OF_PERICENTER><MEAN_ANOMALY>276.7608</MEAN_ANOMALY></meanElements><tleParameters><EPHEMERIS_TYPE>0</EPHEMERIS_TYPE><CLASSIFICATION_TYPE>U</CLASSIFICATION_TYPE><NORAD_CAT_ID>56077</NORAD_CAT_ID><ELEMENT_SET_NO>999</ELEMENT_SET_NO><REV_AT_EPOCH>2959</REV_AT_EPOCH><BSTAR>.86814E-3</BSTAR><MEAN_MOTION_DOT>.337E-5</MEAN_MOTION_DOT><MEAN_MOTION_DDOT>0</MEAN_MOTION_DDOT></tleParameters></data></segment></body></omm>
<omm id="CCSDS_OMM_VERS" version="2.0">
<header><CREATION_DATE/><ORIGINATOR/></header><body><segment><metadata><OBJECT_NAME>ONEWEB-0637</OBJECT_NAME><OBJECT_ID>2023-043AJ</OBJECT_ID><CENTER_NAME>EARTH</CENTER_NAME><REF_FRAME>TEME</REF_FRAME><TIME_SYSTEM>UTC</TIME_SYSTEM><MEAN_ELEMENT_THEORY>SGP4</MEAN_ELEMENT_THEORY></metadata><data><meanElements><EPOCH>2023-10-19T17:23:06.756000</EPOCH><MEAN_MOTION>13.15546536</MEAN_MOTION><ECCENTRICITY>.0002093</ECCENTRICITY><INCLINATION>87.8956</INCLINATION><RA_OF_ASC_NODE>92.6146</RA_OF_ASC_NODE><ARG_OF_PERICENTER>93.9761</ARG_OF_PERICENTER><MEAN_ANOMALY>266.1609</MEAN_ANOMALY></meanElements><tleParameters><EPHEMERIS_TYPE>0</EPHEMERIS_TYPE><CLASSIFICATION_TYPE>U</CLASSIFICATION_TYPE><NORAD_CAT_ID>56078</NORAD_CAT_ID><ELEMENT_SET_NO>999</ELEMENT_SET_NO><REV_AT_EPOCH>2961</REV_AT_EPOCH><BSTAR>.34075E-4</BSTAR><MEAN_MOTION_DOT>.26E-6</MEAN_MOTION_DOT><MEAN_MOTION_DDOT>0</MEAN_MOTION_DDOT></tleParameters></data></segment></body></omm>

</ndm>
