ONEWEB-0613             
1 56071U 23043AB  23292.85115130 -.00000089  00000+0 -27179-3 0  9990
2 56071  87.8953  92.5883 0001771  77.6782 282.4547 13.15547889 29632
ONEWEB-0630             
1 56072U 23043AC  23292.84692356 -.00000119  00000+0 -35024-3 0  9992
2 56072  87.8950  92.5888 0001513  73.5772 286.5525 13.15547843 29623
ONEWEB-0632             
1 56073U 23043AD  23292.84270057 -.00000064  00000+0 -20501-3 0  9996
2 56073  87.8956  92.6053 0002278  84.5922 275.5469 13.15548568 29623
ONEWEB-0633             
1 56074U 23043AE  23292.68432325  .00000036  00000+0  61230-4 0  9999
2 56074  87.8946  92.6303 0001495  63.5870 296.5414 13.16016526 29583
ONEWEB-0634             
1 56075U 23043AF  23292.51626858  .00000231  00000+0  57971-3 0  9991
2 56075  87.8945  92.6593 0001167  97.4822 262.6441 13.15540888 28645
ONEWEB-0635             
1 56076U 23043AG  23292.73903364  .00000169  00000+0  41893-3 0  9992
2 56076  87.8927  92.6878 0002235  87.2007 272.9379 13.15085469 29612
ONEWEB-0636             
1 56077U 23043AH  23292.73065447  .00000337  00000+0  86814-3 0  9993
2 56077  87.8935  92.6544 0002198  83.3772 276.7608 13.15069029 29594
ONEWEB-0637             
1 56078U 23043AJ  23292.72438375  .00000026  00000+0  34075-4 0  9995
2 56078  87.8956  92.6146 0002093  93.9761 266.1609 13.15546536 29615
